{
  "type": "FeatureCollection",
  "features": [
    {
      "type": "Feature",
      "properties": {
        "norad_id": 66621,
        "name": "STARLINK-35847",
        "group": "last-30-days",
        "lat": 4.9390672708692955,
        "lon": 22.019991601558388,
        "alt_km": 368.38153966539085,
        "timestamp": "2025-12-08T21:31:03.448294+00:00",
        "meta_object_name": "STARLINK-35847",
        "meta_object_id": "2025-271E",
        "meta_epoch": "2025-12-08T14:00:01.999872",
        "meta_mean_motion": 15.67985539,
        "meta_eccentricity": 0.00012058,
        "meta_inclination": 53.1594,
        "meta_ra_of_asc_node": 207.2738,
        "meta_arg_of_pericenter": 115.1324,
        "meta_mean_anomaly": 90.3112,
        "meta_ephemeris_type": 0,
        "meta_classification_type": "U",
        "meta_norad_cat_id": 66621,
        "meta_element_set_no": 999,
        "meta_rev_at_epoch": 357,
        "meta_bstar": -0.019240608,
        "meta_mean_motion_dot": -0.01923305,
        "meta_mean_motion_ddot": 0,
        "tle_line1": "1 66621U 25271E   25342.58335648 -.01923305  00000+0 -19241-1 0  9998",
        "tle_line2": "2 66621  53.1594 207.2738 0001205 115.1324  90.3112 15.67985539  3573"
      },
      "geometry": {
        "type": "Point",
        "coordinates": [
          22.019991601558388,
          4.9390672708692955
        ]
      }
    },
    {
      "type": "Feature",
      "properties": {
        "norad_id": 66622,
        "name": "STARLINK-35950",
        "group": "last-30-days",
        "lat": 40.0321790329374,
        "lon": -13.202407191719047,
        "alt_km": 362.5416071003019,
        "timestamp": "2025-12-08T21:31:03.448304+00:00",
        "meta_object_name": "STARLINK-35950",
        "meta_object_id": "2025-271F",
        "meta_epoch": "2025-12-08T14:00:01.999872",
        "meta_mean_motion": 15.67984619,
        "meta_eccentricity": 0.00011392,
        "meta_inclination": 53.1596,
        "meta_ra_of_asc_node": 207.3737,
        "meta_arg_of_pericenter": 104.1335,
        "meta_mean_anomaly": 54.0325,
        "meta_ephemeris_type": 0,
        "meta_classification_type": "U",
        "meta_norad_cat_id": 66622,
        "meta_element_set_no": 999,
        "meta_rev_at_epoch": 357,
        "meta_bstar": -0.019216065,
        "meta_mean_motion_dot": -0.01921021,
        "meta_mean_motion_ddot": 0,
        "tle_line1": "1 66622U 25271F   25342.58335648 -.01921021  00000+0 -19216-1 0  9994",
        "tle_line2": "2 66622  53.1596 207.3737 0001139 104.1335  54.0325 15.67984619  3573"
      },
      "geometry": {
        "type": "Point",
        "coordinates": [
          -13.202407191719047,
          40.0321790329374
        ]
      }
    },
    {
      "type": "Feature",
      "properties": {
        "norad_id": 66623,
        "name": "STARLINK-35920",
        "group": "last-30-days",
        "lat": 37.58048134766158,
        "lon": -9.411585269905549,
        "alt_km": 362.96963232436065,
        "timestamp": "2025-12-08T21:31:03.448316+00:00",
        "meta_object_name": "STARLINK-35920",
        "meta_object_id": "2025-271G",
        "meta_epoch": "2025-12-08T14:00:01.999872",
        "meta_mean_motion": 15.67971642,
        "meta_eccentricity": 0.00012232,
        "meta_inclination": 53.1594,
        "meta_ra_of_asc_node": 207.3654,
        "meta_arg_of_pericenter": 94.6676,
        "meta_mean_anomaly": 67.342,
        "meta_ephemeris_type": 0,
        "meta_classification_type": "U",
        "meta_norad_cat_id": 66623,
        "meta_element_set_no": 999,
        "meta_rev_at_epoch": 357,
        "meta_bstar": -0.019068414,
        "meta_mean_motion_dot": -0.01907098,
        "meta_mean_motion_ddot": 0,
        "tle_line1": "1 66623U 25271G   25342.58335648 -.01907098  00000+0 -19068-1 0  9998",
        "tle_line2": "2 66623  53.1594 207.3654 0001223  94.6676  67.3420 15.67971642  3570"
      },
      "geometry": {
        "type": "Point",
        "coordinates": [
          -9.411585269905549,
          37.58048134766158
        ]
      }
    },
    {
      "type": "Feature",
      "properties": {
        "norad_id": 66624,
        "name": "STARLINK-35927",
        "group": "last-30-days",
        "lat": 38.822319580528976,
        "lon": -11.27510706024773,
        "alt_km": 362.7825283658285,
        "timestamp": "2025-12-08T21:31:03.448326+00:00",
        "meta_object_name": "STARLINK-35927",
        "meta_object_id": "2025-271H",
        "meta_epoch": "2025-12-08T14:00:01.999872",
        "meta_mean_motion": 15.67985021,
        "meta_eccentricity": 0.0001107,
        "meta_inclination": 53.1595,
        "meta_ra_of_asc_node": 207.3697,
        "meta_arg_of_pericenter": 100.5786,
        "meta_mean_anomaly": 59.5044,
        "meta_ephemeris_type": 0,
        "meta_classification_type": "U",
        "meta_norad_cat_id": 66624,
        "meta_element_set_no": 999,
        "meta_rev_at_epoch": 357,
        "meta_bstar": -0.019224086,
        "meta_mean_motion_dot": -0.01921736,
        "meta_mean_motion_ddot": 0,
        "tle_line1": "1 66624U 25271H   25342.58335648 -.01921736  00000+0 -19224-1 0  9998",
        "tle_line2": "2 66624  53.1595 207.3697 0001107 100.5786  59.5044 15.67985021  3570"
      },
      "geometry": {
        "type": "Point",
        "coordinates": [
          -11.27510706024773,
          38.822319580528976
        ]
      }
    },
    {
      "type": "Feature",
      "properties": {
        "norad_id": 66625,
        "name": "STARLINK-35929",
        "group": "last-30-days",
        "lat": 36.31396812022439,
        "lon": -7.615136516387728,
        "alt_km": 363.1451570665495,
        "timestamp": "2025-12-08T21:31:03.448338+00:00",
        "meta_object_name": "STARLINK-35929",
        "meta_object_id": "2025-271J",
        "meta_epoch": "2025-12-08T14:00:01.999872",
        "meta_mean_motion": 15.67984428,
        "meta_eccentricity": 0.0001149,
        "meta_inclination": 53.1592,
        "meta_ra_of_asc_node": 207.3614,
        "meta_arg_of_pericenter": 107.2554,
        "meta_mean_anomaly": 56.663,
        "meta_ephemeris_type": 0,
        "meta_classification_type": "U",
        "meta_norad_cat_id": 66625,
        "meta_element_set_no": 999,
        "meta_rev_at_epoch": 357,
        "meta_bstar": -0.019233182,
        "meta_mean_motion_dot": -0.0192253,
        "meta_mean_motion_ddot": 0,
        "tle_line1": "1 66625U 25271J   25342.58335648 -.01922530  00000+0 -19233-1 0  9992",
        "tle_line2": "2 66625  53.1592 207.3614 0001149 107.2554  56.6630 15.67984428  3579"
      },
      "geometry": {
        "type": "Point",
        "coordinates": [
          -7.615136516387728,
          36.31396812022439
        ]
      }
    },
    {
      "type": "Feature",
      "properties": {
        "norad_id": 66626,
        "name": "STARLINK-35902",
        "group": "last-30-days",
        "lat": 35.0202189813189,
        "lon": -5.874863288497037,
        "alt_km": 363.3563597144348,
        "timestamp": "2025-12-08T21:31:03.448350+00:00",
        "meta_object_name": "STARLINK-35902",
        "meta_object_id": "2025-271K",
        "meta_epoch": "2025-12-08T14:00:01.999872",
        "meta_mean_motion": 15.67986943,
        "meta_eccentricity": 0.0001163,
        "meta_inclination": 53.1596,
        "meta_ra_of_asc_node": 207.3571,
        "meta_arg_of_pericenter": 106.5558,
        "meta_mean_anomaly": 59.2762,
        "meta_ephemeris_type": 0,
        "meta_classification_type": "U",
        "meta_norad_cat_id": 66626,
        "meta_element_set_no": 999,
        "meta_rev_at_epoch": 357,
        "meta_bstar": -0.019245059,
        "meta_mean_motion_dot": -0.01923767,
        "meta_mean_motion_ddot": 0,
        "tle_line1": "1 66626U 25271K   25342.58335648 -.01923767  00000+0 -19245-1 0  9999",
        "tle_line2": "2 66626  53.1596 207.3571 0001163 106.5558  59.2762 15.67986943  3577"
      },
      "geometry": {
        "type": "Point",
        "coordinates": [
          -5.874863288497037,
          35.0202189813189
        ]
      }
    },
    {
      "type": "Feature",
      "properties": {
        "norad_id": 66627,
        "name": "STARLINK-35904",
        "group": "last-30-days",
        "lat": 33.702466394093314,
        "lon": -4.190507197213148,
        "alt_km": 363.6332771206271,
        "timestamp": "2025-12-08T21:31:03.448360+00:00",
        "meta_object_name": "STARLINK-35904",
        "meta_object_id": "2025-271L",
        "meta_epoch": "2025-12-08T14:00:01.999872",
        "meta_mean_motion": 15.67985829,
        "meta_eccentricity": 0.00010678,
        "meta_inclination": 53.1595,
        "meta_ra_of_asc_node": 207.3526,
        "meta_arg_of_pericenter": 107.7598,
        "meta_mean_anomaly": 59.989,
        "meta_ephemeris_type": 0,
        "meta_classification_type": "U",
        "meta_norad_cat_id": 66627,
        "meta_element_set_no": 999,
        "meta_rev_at_epoch": 341,
        "meta_bstar": -0.019228584,
        "meta_mean_motion_dot": -0.01922163,
        "meta_mean_motion_ddot": 0,
        "tle_line1": "1 66627U 25271L   25342.58335648 -.01922163  00000+0 -19229-1 0  9991",
        "tle_line2": "2 66627  53.1595 207.3526 0001067 107.7598  59.9890 15.67985829  3411"
      },
      "geometry": {
        "type": "Point",
        "coordinates": [
          -4.190507197213148,
          33.702466394093314
        ]
      }
    }
  ]
}